{
  "type": "FeatureCollection",
  "features": [
    {
      "type": "Feature",
      "properties": {
        "norad_id": 59626,
        "name": "LEGION 2",
        "group": "resource",
        "lat": -78.62918672391989,
        "lon": 93.46555957847447,
        "alt_km": 521.6421880069802,
        "timestamp": "2025-12-03T13:52:09.223219+00:00",
        "meta_object_name": "LEGION 2",
        "meta_object_id": "2024-081B",
        "meta_epoch": "2025-12-03T06:18:31.716576",
        "meta_mean_motion": 15.16338726,
        "meta_eccentricity": 0.00062555,
        "meta_inclination": 97.5233,
        "meta_ra_of_asc_node": 52.0697,
        "meta_arg_of_pericenter": 332.3345,
        "meta_mean_anomaly": 27.7554,
        "meta_ephemeris_type": 0,
        "meta_classification_type": "U",
        "meta_norad_cat_id": 59626,
        "meta_element_set_no": 999,
        "meta_rev_at_epoch": 8784,
        "meta_bstar": 0.00033864324,
        "meta_mean_motion_dot": 6.503e-05,
        "meta_mean_motion_ddot": 0,
        "tle_line1": "1 59626U 24081B   25337.26286709  .00006503  00000+0  33864-3 0  9993",
        "tle_line2": "2 59626  97.5233  52.0697 0006255 332.3345  27.7554 15.16338726 87848"
      },
      "geometry": {
        "type": "Point",
        "coordinates": [
          93.46555957847447,
          -78.62918672391989
        ]
      }
    },
    {
      "type": "Feature",
      "properties": {
        "norad_id": 60182,
        "name": "ALOS-4 (DAICHI-4)",
        "group": "resource",
        "lat": 70.7020996545461,
        "lon": 49.11887160883864,
        "alt_km": 623.3468253411875,
        "timestamp": "2025-12-03T13:52:09.223229+00:00",
        "meta_object_name": "ALOS-4 (DAICHI-4)",
        "meta_object_id": "2024-123A",
        "meta_epoch": "2025-11-30T09:15:12.370176",
        "meta_mean_motion": 14.79468497,
        "meta_eccentricity": 0.000127,
        "meta_inclination": 97.9232,
        "meta_ra_of_asc_node": 69.4089,
        "meta_arg_of_pericenter": 105.4124,
        "meta_mean_anomaly": 254.7228,
        "meta_ephemeris_type": 0,
        "meta_classification_type": "U",
        "meta_norad_cat_id": 60182,
        "meta_element_set_no": 999,
        "meta_rev_at_epoch": 7648,
        "meta_bstar": -8.429942e-06,
        "meta_mean_motion_dot": -1.14e-06,
        "meta_mean_motion_ddot": 0,
        "tle_line1": "1 60182U 24123A   25334.38555984 -.00000114  00000+0 -84299-5 0  9997",
        "tle_line2": "2 60182  97.9232  69.4089 0001270 105.4124 254.7228 14.79468497 76488"
      },
      "geometry": {
        "type": "Point",
        "coordinates": [
          49.11887160883864,
          70.7020996545461
        ]
      }
    },
    {
      "type": "Feature",
      "properties": {
        "norad_id": 60452,
        "name": "LEGION 3",
        "group": "resource",
        "lat": -44.93026487474296,
        "lon": -94.2177302498902,
        "alt_km": 527.7064788298048,
        "timestamp": "2025-12-03T13:52:09.223241+00:00",
        "meta_object_name": "LEGION 3",
        "meta_object_id": "2024-146A",
        "meta_epoch": "2025-12-03T07:56:57.551424",
        "meta_mean_motion": 15.15599051,
        "meta_eccentricity": 0.00137802,
        "meta_inclination": 45.0024,
        "meta_ra_of_asc_node": 0.5644,
        "meta_arg_of_pericenter": 145.2727,
        "meta_mean_anomaly": 214.9053,
        "meta_ephemeris_type": 0,
        "meta_classification_type": "U",
        "meta_norad_cat_id": 60452,
        "meta_element_set_no": 999,
        "meta_rev_at_epoch": 7230,
        "meta_bstar": 0.00039551608,
        "meta_mean_motion_dot": 7.397e-05,
        "meta_mean_motion_ddot": 0,
        "tle_line1": "1 60452U 24146A   25337.33122166  .00007397  00000+0  39552-3 0  9990",
        "tle_line2": "2 60452  45.0024   0.5644 0013780 145.2727 214.9053 15.15599051 72307"
      },
      "geometry": {
        "type": "Point",
        "coordinates": [
          -94.2177302498902,
          -44.93026487474296
        ]
      }
    },
    {
      "type": "Feature",
      "properties": {
        "norad_id": 60453,
        "name": "LEGION 4",
        "group": "resource",
        "lat": -44.49579996599728,
        "lon": -9.944164210457723,
        "alt_km": 515.8114947445465,
        "timestamp": "2025-12-03T13:52:09.223251+00:00",
        "meta_object_name": "LEGION 4",
        "meta_object_id": "2024-146B",
        "meta_epoch": "2025-12-03T07:58:17.092128",
        "meta_mean_motion": 15.15659669,
        "meta_eccentricity": 0.00099081,
        "meta_inclination": 45.038,
        "meta_ra_of_asc_node": 92.2809,
        "meta_arg_of_pericenter": 262.1537,
        "meta_mean_anomaly": 97.8218,
        "meta_ephemeris_type": 0,
        "meta_classification_type": "U",
        "meta_norad_cat_id": 60453,
        "meta_element_set_no": 999,
        "meta_rev_at_epoch": 7115,
        "meta_bstar": 0.0004645865,
        "meta_mean_motion_dot": 8.744e-05,
        "meta_mean_motion_ddot": 0,
        "tle_line1": "1 60453U 24146B   25337.33214227  .00008744  00000+0  46459-3 0  9992",
        "tle_line2": "2 60453  45.0380  92.2809 0009908 262.1537  97.8218 15.15659669 71154"
      },
      "geometry": {
        "type": "Point",
        "coordinates": [
          -9.944164210457723,
          -44.49579996599728
        ]
      }
    },
    {
      "type": "Feature",
      "properties": {
        "norad_id": 60989,
        "name": "SENTINEL-2C",
        "group": "resource",
        "lat": -1.7542026126259733,
        "lon": 50.457295432243136,
        "alt_km": 792.3160718536265,
        "timestamp": "2025-12-03T13:52:09.223265+00:00",
        "meta_object_name": "SENTINEL-2C",
        "meta_object_id": "2024-157A",
        "meta_epoch": "2025-12-03T05:29:09.331008",
        "meta_mean_motion": 14.30824002,
        "meta_eccentricity": 0.00011466,
        "meta_inclination": 98.5614,
        "meta_ra_of_asc_node": 49.849,
        "meta_arg_of_pericenter": 101.9466,
        "meta_mean_anomaly": 258.1845,
        "meta_ephemeris_type": 0,
        "meta_classification_type": "U",
        "meta_norad_cat_id": 60989,
        "meta_element_set_no": 999,
        "meta_rev_at_epoch": 6496,
        "meta_bstar": 0.00010974944,
        "meta_mean_motion_dot": 2.44e-06,
        "meta_mean_motion_ddot": 0,
        "tle_line1": "1 60989U 24157A   25337.22858022  .00000244  00000+0  10975-3 0  9994",
        "tle_line2": "2 60989  98.5614  49.8490 0001146 101.9466 258.1845 14.30824002 64962"
      },
      "geometry": {
        "type": "Point",
        "coordinates": [
          50.457295432243136,
          -1.7542026126259733
        ]
      }
    },
    {
      "type": "Feature",
      "properties": {
        "norad_id": 61735,
        "name": "IONOSFERA-M 1",
        "group": "resource",
        "lat": 8.251687864254118,
        "lon": 28.774276797355107,
        "alt_km": 818.7075708931616,
        "timestamp": "2025-12-03T13:52:09.223275+00:00",
        "meta_object_name": "IONOSFERA-M 1",
        "meta_object_id": "2024-199A",
        "meta_epoch": "2025-12-03T08:00:07.208928",
        "meta_mean_motion": 14.22710607,
        "meta_eccentricity": 0.0001377,
        "meta_inclination": 98.7409,
        "meta_ra_of_asc_node": 207.2533,
        "meta_arg_of_pericenter": 35.0349,
        "meta_mean_anomaly": 325.092,
        "meta_ephemeris_type": 0,
        "meta_classification_type": "U",
        "meta_norad_cat_id": 61735,
        "meta_element_set_no": 999,
        "meta_rev_at_epoch": 9985,
        "meta_bstar": 7.2871097e-05,
        "meta_mean_motion_dot": 1.19e-06,
        "meta_mean_motion_ddot": 0,
        "tle_line1": "1 61735U 24199A   25337.33341677  .00000119  00000+0  72871-4 0  9990",
        "tle_line2": "2 61735  98.7409 207.2533 0001377  35.0349 325.0920 14.22710607 99857"
      },
      "geometry": {
        "type": "Point",
        "coordinates": [
          28.774276797355107,
          8.251687864254118
        ]
      }
    },
    {
      "type": "Feature",
      "properties": {
        "norad_id": 61736,
        "name": "IONOSFERA-M 2",
        "group": "resource",
        "lat": -5.943447491848152,
        "lon": -151.67377472349403,
        "alt_km": 820.4476243437566,
        "timestamp": "2025-12-03T13:52:09.223286+00:00",
        "meta_object_name": "IONOSFERA-M 2",
        "meta_object_id": "2024-199B",
        "meta_epoch": "2025-12-03T08:50:01.724064",
        "meta_mean_motion": 14.22712694,
        "meta_eccentricity": 0.0001378,
        "meta_inclination": 98.7407,
        "meta_ra_of_asc_node": 207.2004,
        "meta_arg_of_pericenter": 121.6247,
        "meta_mean_anomaly": 238.5065,
        "meta_ephemeris_type": 0,
        "meta_classification_type": "U",
        "meta_norad_cat_id": 61736,
        "meta_element_set_no": 999,
        "meta_rev_at_epoch": 10298,
        "meta_bstar": 7.3782756e-05,
        "meta_mean_motion_dot": 1.21e-06,
        "meta_mean_motion_ddot": 0,
        "tle_line1": "1 61736U 24199B   25337.36807551  .00000121  00000+0  73783-4 0  9998",
        "tle_line2": "2 61736  98.7407 207.2004 0001378 121.6247 238.5065 14.22712694102984"
      },
      "geometry": {
        "type": "Point",
        "coordinates": [
          -151.67377472349403,
          -5.943447491848152
        ]
      }
    }
  ]
}